NORAD_CAT_ID,OBJECT_NAME,OBJECT_TYPE,EPOCH,MEAN_MOTION,ECCENTRICITY,INCLINATION,RA_OF_ASC_NODE,ARG_OF_PERICENTER,MEAN_ANOMALY,BSTAR,MEAN_MOTION_DOT,MEAN_MOTION_DDOT,TLE_LINE0,TLE_LINE1,TLE_LINE2,SEMIMAJOR_AXIS,PERIOD,APOGEE,PERIGEE,DECAYED
51740.0,STARLINK-3500,PAYLOAD,2023-01-01 17:15:51,15.08841999,0.0002715,53.2164,139.8991,87.6705,272.4598,-6.2007000000000015e-06,-3.87e-06,0.0,0 STARLINK-3500,1 51740U 22016AC  23001.71934918 -.00000387  00000-0 -62007-5 0  9996,2 51740  53.2164 139.8991 0002715  87.6705 272.4598 15.08841999 47998,6917.874,95.437,541.617,537.861,0.0
51740.0,STARLINK-3500,PAYLOAD,2023-01-02 12:20:29,15.08837019,0.0002713,53.2179,136.3293,92.5981,267.5322,5.4771e-05,5.83e-06,0.0,0 STARLINK-3500,1 51740U 22016AC  23002.51423283  .00000583  00000-0  54771-4 0  9997,2 51740  53.2179 136.3293 0002713  92.5981 267.5322 15.08837019 48113,6917.89,95.438,541.631,537.878,0.0
51740.0,STARLINK-3500,PAYLOAD,2023-01-02 15:31:15,15.08841992,0.0002558,53.2175,135.7361,90.2828,269.8457,9.7789e-05,1.268e-05,0.0,0 STARLINK-3500,1 51740U 22016AC  23002.64670868  .00001268  00000-0  97789-4 0  9991,2 51740  53.2175 135.7361 0002558  90.2828 269.8457 15.08841992 48131,6917.874,95.437,541.509,537.97,0.0
51740.0,STARLINK-3500,PAYLOAD,2023-01-03 12:11:15,15.08882391,0.0002836,53.2175,131.8704,85.2137,274.9179,-0.00065828,-0.00010763,0.0,0 STARLINK-3500,1 51740U 22016AC  23003.50781876 -.00010763  00000-0 -65828-3 0  9999,2 51740  53.2175 131.8704 0002836  85.2137 274.9179 15.08882391 48265,6917.751,95.435,541.578,537.654,0.0
51740.0,STARLINK-3500,PAYLOAD,2023-01-03 15:22:03,15.08828172,0.000247,53.2174,131.2761,91.4771,268.6504,0.00024055,3.541e-05,0.0,0 STARLINK-3500,1 51740U 22016AC  23003.64031826  .00003541  00000-0  24055-3 0  9998,2 51740  53.2174 131.2761 0002470  91.4771 268.6504 15.08828172 49347,6917.917,95.438,541.49,538.073,0.0
51740.0,STARLINK-3500,PAYLOAD,2023-01-04 08:51:17,15.08836572,0.0002473,53.2169,128.0061,93.3003,266.8272,6.3065e-05,7.15e-06,0.0,0 STARLINK-3500,1 51740U 22016AC  23004.36895783  .00000715  00000-0  63065-4 0  9993,2 51740  53.2169 128.0061 0002473  93.3003 266.8272 15.08836572 48399,6917.891,95.438,541.467,538.045,0.0
51740.0,STARLINK-3500,PAYLOAD,2023-01-04 13:37:26,15.08842696,0.0002362,53.2179,127.1128,89.3069,270.8194,8.4141e-05,1.051e-05,0.0,0 STARLINK-3500,1 51740U 22016AC  23004.56767333  .00001051  00000-0  84141-4 0  9996,2 51740  53.2179 127.1128 0002362  89.3069 270.8194 15.08842696 49481,6917.871999999999,95.437,541.371,538.1030000000002,0.0
51740.0,STARLINK-3500,PAYLOAD,2023-01-05 08:42:05,15.08826712,0.0002434,53.2173,123.5453,90.5828,269.5443,-6.5868e-05,-1.336e-05,0.0,0 STARLINK-3500,1 51740U 22016AC  23005.36256871 -.00001336  00000-0 -65868-4 0  9998,2 51740  53.2173 123.5453 0002434  90.5828 269.5443 15.08826712 49600,6917.920999999999,95.438,541.47,538.102,0.0
51740.0,STARLINK-3500,PAYLOAD,2023-01-05 10:17:29,15.08828159,0.0002435999999999,53.2172,123.2478,90.1529,269.9742,-5.4845e-05,-1.161e-05,0.0,0 STARLINK-3500,1 51740U 22016AC  23005.42880815 -.00001161  00000-0 -54845-4 0  9995,2 51740  53.2172 123.2478 0002436  90.1529 269.9742 15.08828159 48555,6917.917,95.438,541.467,538.096,0.0
51740.0,STARLINK-3500,PAYLOAD,2023-01-06 06:57:28,15.08845322,0.000256,53.2175,119.3823,110.6019,249.5248,7.3018e-05,8.74e-06,0.0,0 STARLINK-3500,1 51740U 22016AC  23006.28991632  .00000874  00000-0  73018-4 0  9991,2 51740  53.2175 119.3823 0002560 110.6019 249.5248 15.08845322 49746,6917.864000000001,95.437,541.5,537.9580000000002,0.0
51740.0,STARLINK-3500,PAYLOAD,2023-01-06 16:29:47,15.08851367,0.0002705,53.2173,117.6009,78.5847,281.5449,0.00023528,3.459e-05,0.0,0 STARLINK-3500,1 51740U 22016AC  23006.68735381  .00003459  00000-0  23528-3 0  9994,2 51740  53.2173 117.6009 0002705  78.5847 281.5449 15.08851367 48747,6917.846,95.437,541.582,537.839,0.0
51740.0,STARLINK-3500,PAYLOAD,2023-01-07 06:48:15,15.08840406,0.0002557,53.2167,114.9222,84.8911,275.2373,0.00026078,3.865e-05,0.0,0 STARLINK-3500,1 51740U 22016AC  23007.28351806  .00003865  00000-0  26078-3 0  9991,2 51740  53.2167 114.9222 0002557  84.8911 275.2373 15.08840406 48832,6917.879,95.438,541.513,537.975,0.0
51740.0,STARLINK-3500,PAYLOAD,2023-01-07 09:59:02,15.08836841,0.0002111,53.2166,114.3282,85.0738,275.0496,0.00016045,2.266e-05,0.0,0 STARLINK-3500,1 51740U 22016AC  23007.41599904  .00002266  00000-0  16045-3 0  9996,2 51740  53.2166 114.3282 0002111  85.0738 275.0496 15.08836841 49919,6917.89,95.438,541.215,538.295,0.0
51740.0,STARLINK-3500,PAYLOAD,2023-01-07 13:09:48,15.08840919,0.000192,53.2168,113.7335,86.9894,273.1318,0.00023653,3.478e-05,0.0,0 STARLINK-3500,1 51740U 22016AC  23007.54847759  .00003478  00000-0  23653-3 0  9993,2 51740  53.2168 113.7335 0001920  86.9894 273.1318 15.08840919 48870,6917.8780000000015,95.437,541.071,538.414,0.0
51740.0,STARLINK-3500,PAYLOAD,2023-01-08 09:49:48,15.08840863,0.0001953,53.2161,109.8687,82.0119,278.1095,2.6869e-06,-2.45e-06,0.0,0 STARLINK-3500,1 51740U 22016AC  23008.40959396 -.00000245  00000-0  26869-5 0  9994,2 51740  53.2161 109.8687 0001953  82.0119 278.1095 15.08840863 49003,6917.8780000000015,95.438,541.094,538.3919999999998,0.0
51740.0,STARLINK-3500,PAYLOAD,2023-01-08 16:11:21,15.08851717,0.0002088,53.2163,108.6756,103.3702,256.7523,0.00020278,2.942e-05,0.0,0 STARLINK-3500,1 51740U 22016AC  23008.67454917  .00002942  00000-0  20278-3 0  9993,2 51740  53.2163 108.6756 0002088 103.3702 256.7523 15.08851717 50105,6917.845,95.437,541.154,538.265,0.0
51740.0,STARLINK-3500,PAYLOAD,2023-01-09 06:29:50,15.0883443,0.0002132,53.2163,106.0028,83.9083,276.2152,0.00010013,1.305e-05,0.0,0 STARLINK-3500,1 51740U 22016AC  23009.27072056  .00001305  00000-0  10013-3 0  9998,2 51740  53.2163 106.0028 0002132  83.9083 276.2152 15.08834430 50191,6917.897,95.438,541.237,538.288,0.0
51740.0,STARLINK-3500,PAYLOAD,2023-01-09 12:51:22,15.08831359,0.0001829,53.2165,104.8143,79.7459,280.3739,2.4217e-05,9.7e-07,0.0,0 STARLINK-3500,1 51740U 22016AC  23009.53568186  .00000097  00000-0  24217-4 0  9990,2 51740  53.2165 104.8143 0001829  79.7459 280.3739 15.08831359 49179,6917.906999999998,95.438,541.0369999999998,538.507,0.0
51740.0,STARLINK-3500,PAYLOAD,2023-01-09 16:02:09,15.08837942,0.0001953,53.2163,104.218,83.9081,276.2134,0.00015619,2.198e-05,0.0,0 STARLINK-3500,1 51740U 22016AC  23009.66816107  .00002198  00000-0  15619-3 0  9992,2 51740  53.2163 104.2180 0001953  83.9081 276.2134 15.08837942 49197,6917.887,95.438,541.1030000000002,538.401,0.0
51740.0,STARLINK-3500,PAYLOAD,2023-01-10 09:31:23,15.08844934,0.0002017,53.2163,100.9473,80.6736,279.4484,0.00039622,6.024e-05,0.0,0 STARLINK-3500,1 51740U 22016AC  23010.39680290  .00006024  00000-0  39622-3 0  9998,2 51740  53.2163 100.9473 0002017  80.6736 279.4484 15.08844934 50361,6917.865,95.437,541.126,538.335,0.0
51740.0,STARLINK-3500,PAYLOAD,2023-01-10 14:17:32,15.08853594,0.0001814,53.2171,100.0558,78.372,281.7475,0.00079145,0.00012335,0.0,0 STARLINK-3500,1 51740U 22016AC  23010.59552077  .00012335  00000-0  79145-3 0  9997,2 51740  53.2171 100.0558 0001814  78.3720 281.7475 15.08853594 49339,6917.839,95.437,540.9590000000002,538.4490000000002,0.0
51740.0,STARLINK-3500,PAYLOAD,2023-01-10 15:52:56,15.08857515,0.0001834,53.217,99.7579,79.0182,281.1016,0.0008866,0.00013857,0.0,0 STARLINK-3500,1 51740U 22016AC  23010.66175977  .00013857  00000-0  88660-3 0  9997,2 51740  53.2170  99.7579 0001834  79.0182 281.1016 15.08857515 49340,6917.826999999998,95.436,540.961,538.423,0.0
51740.0,STARLINK-3500,PAYLOAD,2023-01-11 14:08:19,15.08857459,0.0001996,53.2167,95.5936,76.6492,283.4723,0.00051467,7.916e-05,0.0,0 STARLINK-3500,1 51740U 22016AC  23011.58911721  .00007916  00000-0  51467-3 0  9998,2 51740  53.2167  95.5936 0001996  76.6492 283.4723 15.08857459 50544,6917.826999999998,95.436,541.073,538.311,0.0
51740.0,STARLINK-3500,PAYLOAD,2023-01-11 15:43:42,15.08859951,0.000196,53.2167,95.2965,77.8707,282.2505,0.00056858,8.777e-05,0.0,0 STARLINK-3500,1 51740U 22016AC  23011.65535608  .00008777  00000-0  56858-3 0  9997,2 51740  53.2167  95.2965 0001960  77.8707 282.2505 15.08859951 49492,6917.819,95.436,541.04,538.3290000000002,0.0
51740.0,STARLINK-3500,PAYLOAD,2023-01-12 06:02:11,15.08838354,0.000192,53.217,92.6201,99.6718,260.4491,-2.2209e-05,-6.42e-06,0.0,0 STARLINK-3500,1 51740U 22016AC  23012.25151737 -.00000642  00000-0 -22209-4 0  9990,2 51740  53.2170  92.6201 0001920  99.6718 260.4491 15.08838354 50645,6917.885,95.438,541.0790000000002,538.422,0.0
51740.0,STARLINK-3500,PAYLOAD,2023-01-12 15:34:29,15.0884641,0.0002168,53.2169,90.8361,89.6696,270.4544,0.00042773,6.527e-05,0.0,0 STARLINK-3500,1 51740U 22016AC  23012.64895757  .00006527  00000-0  42773-3 0  9993,2 51740  53.2169  90.8361 0002168  89.6696 270.4544 15.08846410 49649,6917.861,95.437,541.226,538.226,0.0
51740.0,STARLINK-3500,PAYLOAD,2023-01-13 13:49:53,15.08849175,0.0001561,53.2154,86.6681,117.8877,242.2273,0.00068756,0.00010674,0.0,0 STARLINK-3500,1 51740U 22016AC  23013.57631767  .00010674  00000-0  68756-3 0  9992,2 51740  53.2154  86.6681 0001561 117.8877 242.2273 15.08849175 50843,6917.852,95.437,540.797,538.637,0.0
51740.0,STARLINK-3500,PAYLOAD,2023-01-14 04:08:22,15.08846041,0.0001725,53.2149,83.9984,89.3851,270.7338,0.00071658,0.00011137,0.0,0 STARLINK-3500,1 51740U 22016AC  23014.17248160  .00011137  00000-0  71658-3 0  9990,2 51740  53.2149  83.9984 0001725  89.3851 270.7338 15.08846041 50937,6917.861999999999,95.437,540.92,538.534,0.0
51740.0,STARLINK-3500,PAYLOAD,2023-01-14 21:37:36,15.08843719,0.0001279,53.2169,80.7198,122.4729,237.6387,0.00043051,6.571e-05,0.0,0 STARLINK-3500,1 51740U 22016AC  23014.90111821  .00006571  00000-0  43051-3 0  9996,2 51740  53.2169  80.7198 0001279 122.4729 237.6387 15.08843719 51046,6917.869000000001,95.437,540.619,538.849,0.0
